SES-15                  
1 42709U 17026A   23266.66379863  .00000056  00000+0  00000+0 0  9994
2 42709   0.0403  12.9989 0000466 135.6671 323.4175  1.00268037 24181
QZS-2 (MICHIBIKI-2)     
1 42738U 17028A   23266.28938405 -.00000126  00000+0  00000+0 0  9998
2 42738  41.0148 257.5951 0749402 270.3366  78.5367  1.00259958 23135
VIASAT-2                
1 42740U 17029A   23266.51924598 -.00000268  00000+0  00000+0 0  9993
2 42740   0.0284 257.9874 0000205 200.1641  21.0009  1.00270303 23177
EUTELSAT 172B           
1 42741U 17029B   23267.15367139 -.00000011  00000+0  00000+0 0  9993
2 42741   0.0574 158.4950 0000319 299.5957 131.9737  1.00270528 23716
GSAT-19                 
1 42747U 17031A   23266.77066236  .00000121  00000+0  00000+0 0  9994
2 42747   0.0285  97.9702 0004558  22.1087 207.5973  1.00272072 23129
ECHOSTAR 21             
1 42749U 17032A   23267.04985345  .00000060  00000+0  00000+0 0  9991
2 42749   3.0370 314.7703 0002592 222.0171 214.0560  1.00272974 23127
BULGARIASAT-1           
1 42801U 17038A   23266.76152500  .00000007  00000+0  00000+0 0  9994
2 42801   0.0349 106.4249 0002650  78.8172  93.1438  1.00272297 22906
HELLAS-SAT 3            
1 42814U 17040A   23266.48235653  .00000149  00000+0  00000+0 0  9998
2 42814   0.0580 356.6123 0001200 126.6496  91.5151  1.00267916 22858
GSAT-17                 
1 42815U 17040B   23266.84632887 -.00000262  00000+0  00000+0 0  9996
2 42815   0.0235 110.5630 0004199 141.6989 148.3441  1.00270929 22873
INTELSAT 35E (IS-35E)   
1 42818U 17041A   23266.75430212 -.00000242  00000+0  00000+0 0  9996
2 42818   0.0228 164.8971 0001827  34.4374  40.0471  1.00268905 22805
COSMOS 2520             
1 42907U 17046A   23267.08729764  .00000131  00000+0  00000+0 0  9996
2 42907   0.0261 125.9794 0000090 298.6203  14.4854  1.00273861 22399
TDRS 13                 
1 42915U 17047A   23266.40059894 -.00000100  00000+0  00000+0 0  9998
2 42915   3.8953 339.4173 0016464 128.2711  27.0490  1.00271373 22341
QZS-3 (MICHIBIKI-3)     
1 42917U 17048A   23267.00138190 -.00000353  00000+0  00000+0 0  9995
2 42917   0.0574 161.3255 0001772  25.0399 303.7700  1.00272828 22362
AMAZONAS 5              
1 42934U 17053A   23266.74899375 -.00000287  00000+0  00000+0 0  9995
2 42934   0.0460 329.6562 0002364 256.8412 344.4766  1.00274773 22122
ASIASAT 9               
1 42942U 17057A   23266.58692608 -.00000363  00000+0  00000+0 0  9995
2 42942   0.0105  88.4247 0001987  91.4590 155.7012  1.00270617 21856
INTELSAT 37E (IS-37E)   
1 42950U 17059A   23267.00118844 -.00000146  00000+0  00000+0 0  9998
2 42950   0.0239 161.9016 0002709  17.4103 165.6876  1.00270730 22041
BSAT-4A                 
1 42951U 17059B   23266.57316927 -.00000354  00000+0  00000+0 0  9993
2 42951   0.0489  44.9008 0001882  58.9545 214.4953  1.00269867 21790
