[{"OBJECT_NAME":"SES-15","OBJECT_ID":"2017-026A","EPOCH":"2023-09-23T15:55:52.201632","MEAN_MOTION":1.00268037,"ECCENTRICITY":4.66e-5,"INCLINATION":0.0403,"RA_OF_ASC_NODE":12.9989,"ARG_OF_PERICENTER":135.6671,"MEAN_ANOMALY":323.4175,"EPHEMERIS_TYPE":0,"CLASSIFICATION_TYPE":"U","NORAD_CAT_ID":42709,"ELEMENT_SET_NO":999,"REV_AT_EPOCH":2418,"BSTAR":0,"MEAN_MOTION_DOT":5.6e-7,"MEAN_MOTION_DDOT":0},{"OBJECT_NAME":"QZS-2 (MICHIBIKI-2)","OBJECT_ID":"2017-028A","EPOCH":"2023-09-23T06:56:42.781920","MEAN_MOTION":1.00259958,"ECCENTRICITY":0.0749402,"INCLINATION":41.0148,"RA_OF_ASC_NODE":257.5951,"ARG_OF_PERICENTER":270.3366,"MEAN_ANOMALY":78.5367,"EPHEMERIS_TYPE":0,"CLASSIFICATION_TYPE":"U","NORAD_CAT_ID":42738,"ELEMENT_SET_NO":999,"REV_AT_EPOCH":2313,"BSTAR":0,"MEAN_MOTION_DOT":-1.26e-6,"MEAN_MOTION_DDOT":0},{"OBJECT_NAME":"VIASAT-2","OBJECT_ID":"2017-029A","EPOCH":"2023-09-23T12:27:42.852672","MEAN_MOTION":1.00270303,"ECCENTRICITY":2.05e-5,"INCLINATION":0.0284,"RA_OF_ASC_NODE":257.9874,"ARG_OF_PERICENTER":200.1641,"MEAN_ANOMALY":21.0009,"EPHEMERIS_TYPE":0,"CLASSIFICATION_TYPE":"U","NORAD_CAT_ID":42740,"ELEMENT_SET_NO":999,"REV_AT_EPOCH":2317,"BSTAR":0,"MEAN_MOTION_DOT":-2.68e-6,"MEAN_MOTION_DDOT":0},{"OBJECT_NAME":"EUTELSAT 172B","OBJECT_ID":"2017-029B","EPOCH":"2023-09-24T03:41:17.208096","MEAN_MOTION":1.00270528,"ECCENTRICITY":3.19e-5,"INCLINATION":0.0574,"RA_OF_ASC_NODE":158.495,"ARG_OF_PERICENTER":299.5957,"MEAN_ANOMALY":131.9737,"EPHEMERIS_TYPE":0,"CLASSIFICATION_TYPE":"U","NORAD_CAT_ID":42741,"ELEMENT_SET_NO":999,"REV_AT_EPOCH":2371,"BSTAR":0,"MEAN_MOTION_DOT":-1.1e-7,"MEAN_MOTION_DDOT":0},{"OBJECT_NAME":"GSAT-19","OBJECT_ID":"2017-031A","EPOCH":"2023-09-23T18:29:45.227904","MEAN_MOTION":1.00272072,"ECCENTRICITY":0.0004558,"INCLINATION":0.0285,"RA_OF_ASC_NODE":97.9702,"ARG_OF_PERICENTER":22.1087,"MEAN_ANOMALY":207.5973,"EPHEMERIS_TYPE":0,"CLASSIFICATION_TYPE":"U","NORAD_CAT_ID":42747,"ELEMENT_SET_NO":999,"REV_AT_EPOCH":2312,"BSTAR":0,"MEAN_MOTION_DOT":1.21e-6,"MEAN_MOTION_DDOT":0},{"OBJECT_NAME":"ECHOSTAR 21","OBJECT_ID":"2017-032A","EPOCH":"2023-09-24T01:11:47.338080","MEAN_MOTION":1.00272974,"ECCENTRICITY":0.0002592,"INCLINATION":3.037,"RA_OF_ASC_NODE":314.7703,"ARG_OF_PERICENTER":222.0171,"MEAN_ANOMALY":214.056,"EPHEMERIS_TYPE":0,"CLASSIFICATION_TYPE":"U","NORAD_CAT_ID":42749,"ELEMENT_SET_NO":999,"REV_AT_EPOCH":2312,"BSTAR":0,"MEAN_MOTION_DOT":6.0e-7,"MEAN_MOTION_DDOT":0},{"OBJECT_NAME":"BULGARIASAT-1","OBJECT_ID":"2017-038A","EPOCH":"2023-09-23T18:16:35.760000","MEAN_MOTION":1.00272297,"ECCENTRICITY":0.000265,"INCLINATION":0.0349,"RA_OF_ASC_NODE":106.4249,"ARG_OF_PERICENTER":78.8172,"MEAN_ANOMALY":93.1438,"EPHEMERIS_TYPE":0,"CLASSIFICATION_TYPE":"U","NORAD_CAT_ID":42801,"ELEMENT_SET_NO":999,"REV_AT_EPOCH":2290,"BSTAR":0,"MEAN_MOTION_DOT":7.0e-8,"MEAN_MOTION_DDOT":0},{"OBJECT_NAME":"HELLAS-SAT 3","OBJECT_ID":"2017-040A","EPOCH":"2023-09-23T11:34:35.604192","MEAN_MOTION":1.00267916,"ECCENTRICITY":0.00012,"INCLINATION":0.058,"RA_OF_ASC_NODE":356.6123,"ARG_OF_PERICENTER":126.6496,"MEAN_ANOMALY":91.5151,"EPHEMERIS_TYPE":0,"CLASSIFICATION_TYPE":"U","NORAD_CAT_ID":42814,"ELEMENT_SET_NO":999,"REV_AT_EPOCH":2285,"BSTAR":0,"MEAN_MOTION_DOT":1.49e-6,"MEAN_MOTION_DDOT":0},{"OBJECT_NAME":"GSAT-17","OBJECT_ID":"2017-040B","EPOCH":"2023-09-23T20:18:42.814368","MEAN_MOTION":1.00270929,"ECCENTRICITY":0.0004199,"INCLINATION":0.0235,"RA_OF_ASC_NODE":110.563,"ARG_OF_PERICENTER":141.6989,"MEAN_ANOMALY":148.3441,"EPHEMERIS_TYPE":0,"CLASSIFICATION_TYPE":"U","NORAD_CAT_ID":42815,"ELEMENT_SET_NO":999,"REV_AT_EPOCH":2287,"BSTAR":0,"MEAN_MOTION_DOT":-2.62e-6,"MEAN_MOTION_DDOT":0},{"OBJECT_NAME":"INTELSAT 35E (IS-35E)","OBJECT_ID":"2017-041A","EPOCH":"2023-09-23T18:06:11.703168","MEAN_MOTION":1.00268905,"ECCENTRICITY":0.0001827,"INCLINATION":0.0228,"RA_OF_ASC_NODE":164.8971,"ARG_OF_PERICENTER":34.4374,"MEAN_ANOMALY":40.0471,"EPHEMERIS_TYPE":0,"CLASSIFICATION_TYPE":"U","NORAD_CAT_ID":42818,"ELEMENT_SET_NO":999,"REV_AT_EPOCH":2280,"BSTAR":0,"MEAN_MOTION_DOT":-2.42e-6,"MEAN_MOTION_DDOT":0},{"OBJECT_NAME":"COSMOS 2520","OBJECT_ID":"2017-046A","EPOCH":"2023-09-24T02:05:42.516096","MEAN_MOTION":1.00273861,"ECCENTRICITY":9.0e-6,"INCLINATION":0.0261,"RA_OF_ASC_NODE":125.9794,"ARG_OF_PERICENTER":298.6203,"MEAN_ANOMALY":14.4854,"EPHEMERIS_TYPE":0,"CLASSIFICATION_TYPE":"U","NORAD_CAT_ID":42907,"ELEMENT_SET_NO":999,"REV_AT_EPOCH":2239,"BSTAR":0,"MEAN_MOTION_DOT":1.31e-6,"MEAN_MOTION_DDOT":0},{"OBJECT_NAME":"TDRS 13","OBJECT_ID":"2017-047A","EPOCH":"2023-09-23T09:36:51.748416","MEAN_MOTION":1.00271373,"ECCENTRICITY":0.0016464,"INCLINATION":3.8953,"RA_OF_ASC_NODE":339.4173,"ARG_OF_PERICENTER":128.2711,"MEAN_ANOMALY":27.049,"EPHEMERIS_TYPE":0,"CLASSIFICATION_TYPE":"U","NORAD_CAT_ID":42915,"ELEMENT_SET_NO":999,"REV_AT_EPOCH":2234,"BSTAR":0,"MEAN_MOTION_DOT":-1.0e-6,"MEAN_MOTION_DDOT":0},{"OBJECT_NAME":"QZS-3 (MICHIBIKI-3)","OBJECT_ID":"2017-048A","EPOCH":"2023-09-24T00:01:59.396160","MEAN_MOTION":1.00272828,"ECCENTRICITY":0.0001772,"INCLINATION":0.0574,"RA_OF_ASC_NODE":161.3255,"ARG_OF_PERICENTER":25.0399,"MEAN_ANOMALY":303.77,"EPHEMERIS_TYPE":0,"CLASSIFICATION_TYPE":"U","NORAD_CAT_ID":42917,"ELEMENT_SET_NO":999,"REV_AT_EPOCH":2236,"BSTAR":0,"MEAN_MOTION_DOT":-3.53e-6,"MEAN_MOTION_DDOT":0},{"OBJECT_NAME":"AMAZONAS 5","OBJECT_ID":"2017-053A","EPOCH":"2023-09-23T17:58:33.060000","MEAN_MOTION":1.00274773,"ECCENTRICITY":0.0002364,"INCLINATION":0.046,"RA_OF_ASC_NODE":329.6562,"ARG_OF_PERICENTER":256.8412,"MEAN_ANOMALY":344.4766,"EPHEMERIS_TYPE":0,"CLASSIFICATION_TYPE":"U","NORAD_CAT_ID":42934,"ELEMENT_SET_NO":999,"REV_AT_EPOCH":2212,"BSTAR":0,"MEAN_MOTION_DOT":-2.87e-6,"MEAN_MOTION_DDOT":0},{"OBJECT_NAME":"ASIASAT 9","OBJECT_ID":"2017-057A","EPOCH":"2023-09-23T14:05:10.413312","MEAN_MOTION":1.00270617,"ECCENTRICITY":0.0001987,"INCLINATION":0.0105,"RA_OF_ASC_NODE":88.4247,"ARG_OF_PERICENTER":91.459,"MEAN_ANOMALY":155.7012,"EPHEMERIS_TYPE":0,"CLASSIFICATION_TYPE":"U","NORAD_CAT_ID":42942,"ELEMENT_SET_NO":999,"REV_AT_EPOCH":2185,"BSTAR":0,"MEAN_MOTION_DOT":-3.63e-6,"MEAN_MOTION_DDOT":0},{"OBJECT_NAME":"INTELSAT 37E (IS-37E)","OBJECT_ID":"2017-059A","EPOCH":"2023-09-24T00:01:42.681216","MEAN_MOTION":1.0027073,"ECCENTRICITY":0.0002709,"INCLINATION":0.0239,"RA_OF_ASC_NODE":161.9016,"ARG_OF_PERICENTER":17.4103,"MEAN_ANOMALY":165.6876,"EPHEMERIS_TYPE":0,"CLASSIFICATION_TYPE":"U","NORAD_CAT_ID":42950,"ELEMENT_SET_NO":999,"REV_AT_EPOCH":2204,"BSTAR":0,"MEAN_MOTION_DOT":-1.46e-6,"MEAN_MOTION_DDOT":0},{"OBJECT_NAME":"BSAT-4A","OBJECT_ID":"2017-059B","EPOCH":"2023-09-23T13:45:21.824928","MEAN_MOTION":1.00269867,"ECCENTRICITY":0.0001882,"INCLINATION":0.0489,"RA_OF_ASC_NODE":44.9008,"ARG_OF_PERICENTER":58.9545,"MEAN_ANOMALY":214.4953,"EPHEMERIS_TYPE":0,"CLASSIFICATION_TYPE":"U","NORAD_CAT_ID":42951,"ELEMENT_SET_NO":999,"REV_AT_EPOCH":2179,"BSTAR":0,"MEAN_MOTION_DOT":-3.54e-6,"MEAN_MOTION_DDOT":0}]